{
    "links": {
        "self": "http://www.neowsapp.com/rest/v1/neo/3582866?api_key=iIulBulltgU6a56xZRHN4H3l9WmuAYTsLGpBGhQ2"
    },
    "id": "3582866",
    "neo_reference_id": "3582866",
    "name": "(2011 UX114)",
    "designation": "2011 UX114",
    "nasa_jpl_url": "http://ssd.jpl.nasa.gov/sbdb.cgi?sstr=3582866",
    "absolute_magnitude_h": 22.5,
    "estimated_diameter": {
        "kilometers": {
            "estimated_diameter_min": 0.0840533402,
            "estimated_diameter_max": 0.1879489824
        },
        "meters": {
            "estimated_diameter_min": 84.0533402073,
            "estimated_diameter_max": 187.9489824394
        },
        "miles": {
            "estimated_diameter_min": 0.0522283081,
            "estimated_diameter_max": 0.1167860472
        },
        "feet": {
            "estimated_diameter_min": 275.7655606856,
            "estimated_diameter_max": 616.6305395464
        }
    },
    "is_potentially_hazardous_asteroid": false,
    "close_approach_data": [
        {
            "close_approach_date": "2007-10-18",
            "close_approach_date_full": "2007-Oct-18 09:38",
            "epoch_date_close_approach": 1192700280000,
            "relative_velocity": {
                "kilometers_per_second": "6.0119119217",
                "kilometers_per_hour": "21642.8829180847",
                "miles_per_hour": "13448.0457776288"
            },
            "miss_distance": {
                "astronomical": "0.4731802123",
                "lunar": "184.0671025847",
                "kilometers": "70786751.886227801",
                "miles": "43984848.0175976138"
            },
            "orbiting_body": "Earth"
        },
        {
            "close_approach_date": "2011-10-27",
            "close_approach_date_full": "2011-Oct-27 05:21",
            "epoch_date_close_approach": 1319692860000,
            "relative_velocity": {
                "kilometers_per_second": "5.8236953056",
                "kilometers_per_hour": "20965.3031002173",
                "miles_per_hour": "13027.0240291322"
            },
            "miss_distance": {
                "astronomical": "0.2166402778",
                "lunar": "84.2730680642",
                "kilometers": "32408924.115088286",
                "miles": "20137971.6349629068"
            },
            "orbiting_body": "Earth"
        }
    ],
    "orbital_data": {
        "orbit_id": "14",
        "orbit_determination_date": "2017-04-06 08:52:15",
        "first_observation_date": "2011-10-23",
        "last_observation_date": "2011-12-21",
        "data_arc_in_days": 59,
        "observations_used": 43,
        "orbit_uncertainty": "6",
        "minimum_orbit_intersection": ".182739",
        "jupiter_tisserand_invariant": "3.262",
        "epoch_osculation": "2459000.5",
        "eccentricity": ".5305590292254925",
        "semi_major_axis": "2.481233930732304",
        "inclination": "5.888408761868673",
        "ascending_node_longitude": "186.1461434735724",
        "orbital_period": "1427.57848502302",
        "perihelion_distance": "1.16479286516162",
        "perihelion_argument": "215.8030345044314",
        "aphelion_distance": "3.797674996302987",
        "perihelion_time": "2458731.076719643484",
        "mean_anomaly": "67.94189037304096",
        "mean_motion": ".2521752770701045",
        "equinox": "J2000",
        "orbit_class": {
            "orbit_class_type": "AMO",
            "orbit_class_description": "Near-Earth asteroid orbits similar to that of 1221 Amor",
            "orbit_class_range": "1.017 AU < q (perihelion) < 1.3 AU"
        }
    },
    "is_sentry_object": false
}